start=new Date('2022-03-03T00:00:00.000Z').valueOf();
sats=[{"EPHEMERIS_TYPE":"0","FILE":"3341695","NORAD_CAT_ID":"45766","PERIOD":"95.592","MEAN_MOTION_DDOT":"0.0000000000000","PERIAPSIS":"545.785","TLE_LINE1":"1 45766U 20038AN  22061.88374310  .00000531  00000-0  54557-4 0  9995","ECCENTRICITY":"0.00020330","OBJECT_TYPE":"PAYLOAD","ELEMENT_SET_NO":"999","RA_OF_ASC_NODE":"325.8594","MEAN_ELEMENT_THEORY":"SGP4","GP_ID":"197657911","CLASSIFICATION_TYPE":"U","ARG_OF_PERICENTER":"60.5736","TIME_SYSTEM":"UTC","SITE":"AFETR","MEAN_ANOMALY":"299.5456","RCS_SIZE":"LARGE","SEMIMAJOR_AXIS":"6925.328","MEAN_MOTION":"15.06406575","BSTAR":"0.00005455700000","MEAN_MOTION_DOT":"0.00000531","REV_AT_EPOCH":"9523","EPOCH":"2022-03-02T21:12:35.403840","INCLINATION":"53.0539","CENTER_NAME":"EARTH","DECAY_DATE":null,"COUNTRY_CODE":"US","APOAPSIS":"548.601","REF_FRAME":"TEME","LAUNCH_DATE":"2020-06-13","OBJECT_NAME":"STARLINK-1509","TLE_LINE2":"2 45766  53.0539 325.8594 0002033  60.5736 299.5456 15.06406575 95234","OBJECT_ID":"2020-038AN"},{"OBJECT_TYPE":"PAYLOAD","TLE_LINE1":"1 45767U 20038AP  22061.87637639 -.00000442  00000-0 -10753-4 0  9994","PERIAPSIS":"545.880","ECCENTRICITY":"0.00019500","NORAD_CAT_ID":"45767","PERIOD":"95.592","MEAN_MOTION_DDOT":"0.0000000000000","EPHEMERIS_TYPE":"0","FILE":"3341695","SITE":"AFETR","ARG_OF_PERICENTER":"61.6368","TIME_SYSTEM":"UTC","GP_ID":"197658162","CLASSIFICATION_TYPE":"U","ELEMENT_SET_NO":"999","RA_OF_ASC_NODE":"325.8950","MEAN_ELEMENT_THEORY":"SGP4","COUNTRY_CODE":"US","DECAY_DATE":null,"EPOCH":"2022-03-02T21:01:58.920096","INCLINATION":"53.0550","CENTER_NAME":"EARTH","MEAN_MOTION_DOT":"-0.00000442","REV_AT_EPOCH":"9523","MEAN_ANOMALY":"298.4818","RCS_SIZE":"LARGE","SEMIMAJOR_AXIS":"6925.366","MEAN_MOTION":"15.06394418","BSTAR":"-0.00001075300000","OBJECT_ID":"2020-038AP","TLE_LINE2":"2 45767  53.0550 325.8950 0001950  61.6368 298.4818 15.06394418 95236","APOAPSIS":"548.581","LAUNCH_DATE":"2020-06-13","REF_FRAME":"TEME","OBJECT_NAME":"STARLINK-1511"},{"DECAY_DATE":null,"COUNTRY_CODE":"US","CENTER_NAME":"EARTH","INCLINATION":"53.0531","EPOCH":"2022-03-02T22:10:58.130688","REV_AT_EPOCH":"9525","MEAN_MOTION_DOT":"0.00000464","BSTAR":"0.00005007300000","MEAN_MOTION":"15.06404558","SEMIMAJOR_AXIS":"6925.335","RCS_SIZE":"LARGE","MEAN_ANOMALY":"293.8234","OBJECT_ID":"2020-038AQ","TLE_LINE2":"2 45768  53.0531 325.6874 0001839  66.2948 293.8234 15.06404558 95250","OBJECT_NAME":"STARLINK-1521","LAUNCH_DATE":"2020-06-13","REF_FRAME":"TEME","APOAPSIS":"548.473","OBJECT_TYPE":"PAYLOAD","TLE_LINE1":"1 45768U 20038AQ  22061.92428392  .00000464  00000-0  50073-4 0  9996","PERIAPSIS":"545.926","ECCENTRICITY":"0.00018390","MEAN_MOTION_DDOT":"0.0000000000000","NORAD_CAT_ID":"45768","PERIOD":"95.592","FILE":"3341695","EPHEMERIS_TYPE":"0","SITE":"AFETR","TIME_SYSTEM":"UTC","ARG_OF_PERICENTER":"66.2948","CLASSIFICATION_TYPE":"U","GP_ID":"197656909","MEAN_ELEMENT_THEORY":"SGP4","ELEMENT_SET_NO":"999","RA_OF_ASC_NODE":"325.6874"},{"GP_ID":"197656660","CLASSIFICATION_TYPE":"U","ELEMENT_SET_NO":"999","RA_OF_ASC_NODE":"345.8720","MEAN_ELEMENT_THEORY":"SGP4","SITE":"AFETR","ARG_OF_PERICENTER":"53.2944","TIME_SYSTEM":"UTC","MEAN_MOTION_DDOT":"0.0000000000000","NORAD_CAT_ID":"45769","PERIOD":"95.592","EPHEMERIS_TYPE":"0","FILE":"3341695","OBJECT_TYPE":"PAYLOAD","ECCENTRICITY":"0.00018320","TLE_LINE1":"1 45769U 20038AR  22061.88189687  .00000795  00000-0  72236-4 0  9995","PERIAPSIS":"545.930","TLE_LINE2":"2 45769  53.0563 345.8720 0001832  53.2944 306.8213 15.06404734 94960","APOAPSIS":"548.468","OBJECT_NAME":"STARLINK-1459","LAUNCH_DATE":"2020-06-13","REF_FRAME":"TEME","OBJECT_ID":"2020-038AR","REV_AT_EPOCH":"9496","MEAN_MOTION_DOT":"0.00000795","RCS_SIZE":"LARGE","MEAN_ANOMALY":"306.8213","BSTAR":"0.00007223600000","SEMIMAJOR_AXIS":"6925.334","MEAN_MOTION":"15.06404734","DECAY_DATE":null,"COUNTRY_CODE":"US","INCLINATION":"53.0563","EPOCH":"2022-03-02T21:09:55.889568","CENTER_NAME":"EARTH"},{"MEAN_MOTION_DOT":"0.00000070","REV_AT_EPOCH":"9551","MEAN_ANOMALY":"296.0918","RCS_SIZE":"LARGE","MEAN_MOTION":"15.06394792","SEMIMAJOR_AXIS":"6925.365","BSTAR":"0.00002361000000","COUNTRY_CODE":"US","DECAY_DATE":null,"EPOCH":"2022-03-02T21:13:53.638176","INCLINATION":"53.0528","CENTER_NAME":"EARTH","TLE_LINE2":"2 45770  53.0528 305.8485 0001586  64.0234 296.0918 15.06394792 95511","APOAPSIS":"548.328","REF_FRAME":"TEME","LAUNCH_DATE":"2020-06-13","OBJECT_NAME":"STARLINK-1462","OBJECT_ID":"2020-038AS","NORAD_CAT_ID":"45770","PERIOD":"95.592","MEAN_MOTION_DDOT":"0.0000000000000","EPHEMERIS_TYPE":"0","FILE":"3341695","OBJECT_TYPE":"PAYLOAD","TLE_LINE1":"1 45770U 20038AS  22061.88464859  .00000070  00000-0  23610-4 0  9992","ECCENTRICITY":"0.00015860","PERIAPSIS":"546.131","GP_ID":"197657412","CLASSIFICATION_TYPE":"U","ELEMENT_SET_NO":"999","RA_OF_ASC_NODE":"305.8485","MEAN_ELEMENT_THEORY":"SGP4","SITE":"AFETR","ARG_OF_PERICENTER":"64.0234","TIME_SYSTEM":"UTC"},{"CLASSIFICATION_TYPE":"U","GP_ID":"197657663","MEAN_ELEMENT_THEORY":"SGP4","ELEMENT_SET_NO":"999","RA_OF_ASC_NODE":"305.5919","SITE":"AFETR","TIME_SYSTEM":"UTC","ARG_OF_PERICENTER":"74.2234","MEAN_MOTION_DDOT":"0.0000000000000","PERIOD":"95.595","NORAD_CAT_ID":"45771","FILE":"3341695","EPHEMERIS_TYPE":"0","OBJECT_TYPE":"PAYLOAD","ECCENTRICITY":"0.00012770","TLE_LINE1":"1 45771U 20038AT  22061.94457905  .00008355  00000-0  57975-3 0  9998","PERIAPSIS":"546.456","TLE_LINE2":"2 45771  53.0554 305.5919 0001277  74.2234 285.8896 15.06358708 95529","OBJECT_NAME":"STARLINK-1463","LAUNCH_DATE":"2020-06-13","REF_FRAME":"TEME","APOAPSIS":"548.224","OBJECT_ID":"2020-038AT","REV_AT_EPOCH":"9552","MEAN_MOTION_DOT":"0.00008355","BSTAR":"0.00057975000000","SEMIMAJOR_AXIS":"6925.475","MEAN_MOTION":"15.06358708","RCS_SIZE":"LARGE","MEAN_ANOMALY":"285.8896","DECAY_DATE":null,"COUNTRY_CODE":"US","CENTER_NAME":"EARTH","INCLINATION":"53.0554","EPOCH":"2022-03-02T22:40:11.629920"},{"EPHEMERIS_TYPE":"0","FILE":"3341695","NORAD_CAT_ID":"45772","PERIOD":"95.592","MEAN_MOTION_DDOT":"0.0000000000000","TLE_LINE1":"1 45772U 20038AU  22061.86715968  .00001049  00000-0  89301-4 0  9998","ECCENTRICITY":"0.00014520","PERIAPSIS":"546.208","OBJECT_TYPE":"PAYLOAD","ELEMENT_SET_NO":"999","RA_OF_ASC_NODE":"305.9285","MEAN_ELEMENT_THEORY":"SGP4","GP_ID":"197656410","CLASSIFICATION_TYPE":"U","ARG_OF_PERICENTER":"75.4608","TIME_SYSTEM":"UTC","SITE":"AFETR","MEAN_ANOMALY":"284.6542","RCS_SIZE":"LARGE","SEMIMAJOR_AXIS":"6925.348","MEAN_MOTION":"15.06400042","BSTAR":"0.00008930100000","MEAN_MOTION_DOT":"0.00001049","REV_AT_EPOCH":"9552","EPOCH":"2022-03-02T20:48:42.596352","INCLINATION":"53.0539","CENTER_NAME":"EARTH","COUNTRY_CODE":"US","DECAY_DATE":null,"APOAPSIS":"548.219","LAUNCH_DATE":"2020-06-13","REF_FRAME":"TEME","OBJECT_NAME":"STARLINK-1470","TLE_LINE2":"2 45772  53.0539 305.9285 0001452  75.4608 284.6542 15.06400042 95520","OBJECT_ID":"2020-038AU"},{"OBJECT_NAME":"STARLINK-1482","REF_FRAME":"TEME","LAUNCH_DATE":"2020-06-13","APOAPSIS":"548.246","TLE_LINE2":"2 45773  53.0554 305.6695 0001527  62.3433 297.7711 15.06408012 95533","OBJECT_ID":"2020-038AV","BSTAR":"-0.00010787000000","SEMIMAJOR_AXIS":"6925.324","MEAN_MOTION":"15.06408012","RCS_SIZE":"LARGE","MEAN_ANOMALY":"297.7711","REV_AT_EPOCH":"9553","MEAN_MOTION_DOT":"-0.00001888","CENTER_NAME":"EARTH","INCLINATION":"53.0554","EPOCH":"2022-03-02T22:13:38.160768","DECAY_DATE":null,"COUNTRY_CODE":"US","MEAN_ELEMENT_THEORY":"SGP4","ELEMENT_SET_NO":"999","RA_OF_ASC_NODE":"305.6695","CLASSIFICATION_TYPE":"U","GP_ID":"197657160","TIME_SYSTEM":"UTC","ARG_OF_PERICENTER":"62.3433","SITE":"AFETR","FILE":"3341695","EPHEMERIS_TYPE":"0","MEAN_MOTION_DDOT":"0.0000000000000","NORAD_CAT_ID":"45773","PERIOD":"95.592","TLE_LINE1":"1 45773U 20038AV  22061.92613612 -.00001888  00000-0 -10787-3 0  9993","PERIAPSIS":"546.132","ECCENTRICITY":"0.00015270","OBJECT_TYPE":"PAYLOAD"},{"BSTAR":"0.00008762000000","SEMIMAJOR_AXIS":"6925.365","MEAN_MOTION":"15.06394736","RCS_SIZE":"LARGE","MEAN_ANOMALY":"292.3556","REV_AT_EPOCH":"9553","MEAN_MOTION_DOT":"0.00001024","CENTER_NAME":"EARTH","INCLINATION":"53.0559","EPOCH":"2022-03-02T23:06:42.157152","DECAY_DATE":null,"COUNTRY_CODE":"US","OBJECT_NAME":"STARLINK-1485","REF_FRAME":"TEME","LAUNCH_DATE":"2020-06-13","APOAPSIS":"548.363","TLE_LINE2":"2 45774  53.0559 305.4968 0001637  67.7606 292.3556 15.06394736 95538","OBJECT_ID":"2020-038AW","FILE":"3341695","EPHEMERIS_TYPE":"0","MEAN_MOTION_DDOT":"0.0000000000000","NORAD_CAT_ID":"45774","PERIOD":"95.592","TLE_LINE1":"1 45774U 20038AW  22061.96298793  .00001024  00000-0  87620-4 0  9998","ECCENTRICITY":"0.00016370","PERIAPSIS":"546.096","OBJECT_TYPE":"PAYLOAD","MEAN_ELEMENT_THEORY":"SGP4","ELEMENT_SET_NO":"999","RA_OF_ASC_NODE":"305.4968","CLASSIFICATION_TYPE":"U","GP_ID":"197657912","TIME_SYSTEM":"UTC","ARG_OF_PERICENTER":"67.7606","SITE":"AFETR"},{"ELEMENT_SET_NO":"999","RA_OF_ASC_NODE":"305.7858","MEAN_ELEMENT_THEORY":"SGP4","GP_ID":"197658163","CLASSIFICATION_TYPE":"U","ARG_OF_PERICENTER":"66.5657","TIME_SYSTEM":"UTC","SITE":"AFETR","EPHEMERIS_TYPE":"0","FILE":"3341695","NORAD_CAT_ID":"45775","PERIOD":"95.592","MEAN_MOTION_DDOT":"0.0000000000000","TLE_LINE1":"1 45775U 20038AX  22061.90033504 -.00000897  00000-0 -41337-4 0  9994","PERIAPSIS":"546.018","ECCENTRICITY":"0.00017200","OBJECT_TYPE":"PAYLOAD","APOAPSIS":"548.400","REF_FRAME":"TEME","LAUNCH_DATE":"2020-06-13","OBJECT_NAME":"STARLINK-1488","TLE_LINE2":"2 45775  53.0554 305.7858 0001720  66.5657 293.5512 15.06401508 95532","OBJECT_ID":"2020-038AX","MEAN_ANOMALY":"293.5512","RCS_SIZE":"LARGE","SEMIMAJOR_AXIS":"6925.344","MEAN_MOTION":"15.06401508","BSTAR":"-0.00004133700000","MEAN_MOTION_DOT":"-0.00000897","REV_AT_EPOCH":"9553","EPOCH":"2022-03-02T21:36:28.947456","INCLINATION":"53.0554","CENTER_NAME":"EARTH","COUNTRY_CODE":"US","DECAY_DATE":null}];
